BEIDOU-2 IGSO-5         
1 37948U 11073A   26164.78949546 -.00000164  00000+0  00000+0 0  9994
2 37948  47.6849 271.5886 0113838 221.6054 144.8748  1.00273385 53106
BEIDOU-2 G5             
1 38091U 12008A   26165.48645013  .00000062  00000+0  00000+0 0  9999
2 38091   3.5657  69.7122 0009141 273.0876 153.7613  1.00271091 52345
BEIDOU-2 M3             
1 38250U 12018A   26163.89300492 -.00000070  00000+0  00000+0 0  9999
2 38250  55.7621 305.0207 0020100 274.1537  85.5973  1.86229873 95866
BEIDOU-2 M4             
1 38251U 12018B   26164.36225567 -.00000070  00000+0  00000+0 0  9992
2 38251  55.6617 304.2191 0011287 276.0779  83.7740  1.86229521 95872
SES-5                   
1 38652U 12036A   26165.33317747  .00000041  00000+0  00000+0 0  9994
2 38652   0.0491 313.1035 0001724 125.3552 309.0952  1.00268156 44424
BEIDOU-2 M6             
1 38775U 12050B   26164.07202103 -.00000056  00000+0  00000+0 0  9992
2 38775  56.5408  63.0305 0013772 356.7295   3.2873  1.86230840 93236
GSAT-10                 
1 38779U 12051B   26165.49130346 -.00000157  00000+0  00000+0 0  9995
2 38779   0.0877 263.3009 0007755 183.8560  75.5194  1.00270098 50076
NAVSTAR 67 (USA 239)    
1 38833U 12053A   26165.32480237  .00000053  00000+0  00000+0 0  9991
2 38833  53.5854 143.7166 0180133  65.7132 296.1316  2.00567366 99387
GSAT0103 (GALILEO-FM3)  
1 38857U 12055A   26162.02314896  .00000014  00000+0  00000+0 0  9997
2 38857  55.8029 101.7147 0004991 304.7651  55.1525  1.70473353 84909
BEIDOU-2 G6             
1 38953U 12059A   26165.58429861 -.00000172  00000+0  00000+0 0  9997
2 38953   4.4136  73.5498 0009642 324.3553 159.3564  1.00272483 49889
LUCH-5B                 
1 38977U 12061A   26163.97444869 -.00000133  00000+0  00000+0 0  9999
2 38977  10.4721  49.9205 0002346 149.8007  36.0976  1.00272671 49565
COSMOS 2485 [GLONASS-M] 
1 39155U 13019A   26164.15591044 -.00000031  00000+0  00000+0 0  9998
2 39155  65.4173  73.7400 0023242 234.2149 125.5877  2.13103375102193
NAVSTAR 68 (USA 242)    
1 39166U 13023A   26164.69310479 -.00000020  00000+0  00000+0 0  9993
2 39166  54.5069 269.1160 0141550  51.0337 310.2421  2.00563399 95819
IRNSS-1A                
1 39199U 13034A   26160.59779131  .00000070  00000+0  00000+0 0  9994
2 39199  35.7049  63.9797 0017411 184.2474 279.8453  1.00272948 47299
NAVSTAR 69 (USA 248)    
1 39533U 14008A   26165.19330912  .00000063  00000+0  00000+0 0  9991
2 39533  53.6541 149.4417 0084237 231.2354 127.9952  2.00559538 89620
ASTRA 5B                
1 39617U 14011B   26165.47951676  .00000144  00000+0  00000+0 0  9995
2 39617   0.0473 334.1538 0001750  98.2630  26.4805  1.00272205 44642
COSMOS 2492 [GLONASS-M] 
1 39620U 14012A   26165.05330889 -.00000053  00000+0  00000+0 0  9991
2 39620  65.2995 314.0427 0010453 325.1473  34.7685  2.13103207 95171
IRNSS-1B                
1 39635U 14017A   26164.77295575  .00000133  00000+0  00000+0 0  9990
2 39635  28.9276 240.4620 0023047 189.4432 165.5473  1.00275287 44750
LUCH-5V                 
1 39727U 14023A   26165.27969322 -.00000265  00000+0  00000+0 0  9990
2 39727   5.1238  69.7710 0001868  44.9595 343.2136  1.00275618 44334
NAVSTAR 70 (USA 251)    
1 39741U 14026A   26164.47160483 -.00000072  00000+0  00000+0 0  9997
2 39741  56.5002 331.6621 0038188 326.6105  33.1472  2.00561124 88464
COSMOS 2500 [GLONASS-M] 
1 40001U 14032A   26164.28459738 -.00000051  00000+0  00000+0 0  9995
2 40001  65.2352 313.8168 0007281 184.1744 175.8059  2.13106047 93378
NAVSTAR 71 (USA 256)    
1 40105U 14045A   26165.06191814 -.00000030  00000+0  00000+0 0  9996
2 40105  55.3513  88.5895 0033186 118.2823 242.0384  2.00558116 86019
GSAT0201 (GALILEO 5)    
1 40128U 14050A   26164.64403526 -.00000043  00000+0  00000+0 0  9990
2 40128  48.8793 273.5817 1673953 179.2575 181.0766  1.85519952 78255
GSAT0202 (GALILEO 6)    
1 40129U 14050B   26164.36060369 -.00000042  00000+0  00000+0 0  9993
2 40129  48.8965 272.6788 1675244 179.9701 180.0913  1.85520497 80417
IRNSS-1C                
1 40269U 14061A   26165.34869221 -.00000158  00000+0  00000+0 0  9991
2 40269   6.5109  88.9845 0022711   2.0879  20.0997  1.00269780 42663
NAVSTAR 72 (USA 258)    
1 40294U 14068A   26163.93501465 -.00000061  00000+0  00000+0 0  9995
2 40294  56.9847  31.1185 0066962  70.4280 290.3526  2.00575830 85122
COSMOS 2501 [GLONASS-K] 
1 40315U 14075A   26164.07739897  .00000117  00000+0  00000+0 0  9996
2 40315  63.6161 190.5143 0022567 212.1681 147.7675  2.13101424 89769
NAVSTAR 73 (USA 260)    
1 40534U 15013A   26164.57224104  .00000093  00000+0  00000+0 0  9990
2 40534  53.1681 204.3272 0109430  40.1118 320.7798  2.00551527 81758
GSAT0203 (GALILEO 7)    
1 40544U 15017A   26162.34701021 -.00000066  00000+0  00000+0 0  9997
2 40544  56.7895 341.7548 0002091 278.1581  81.8319  1.70476009 69105
GSAT0204 (GALILEO 8)    
1 40545U 15017B   26162.60278512 -.00000067  00000+0  00000+0 0  9992
2 40545  56.7979 341.7663 0001892 248.9862 111.0068  1.70475611 32152
